NORAD_CAT_ID,OBJECT_NAME,OBJECT_TYPE,EPOCH,MEAN_MOTION,ECCENTRICITY,INCLINATION,RA_OF_ASC_NODE,ARG_OF_PERICENTER,MEAN_ANOMALY,BSTAR,MEAN_MOTION_DOT,MEAN_MOTION_DDOT,TLE_LINE0,TLE_LINE1,TLE_LINE2,SEMIMAJOR_AXIS,PERIOD,APOGEE,PERIGEE,DECAYED
52582.0,STARLINK-3886,PAYLOAD,2023-11-04 09:30:28,15.08842743,0.0001673,53.2183,3.1729,92.0746,268.0437,0.00018187,2.608e-05,0.0,0 STARLINK-3886,1 52582U 22051AY  23308.39616281  .00002608  00000-0  18187-3 0  9998,2 52582  53.2183   3.1729 0001673  92.0746 268.0437 15.08842743 82319,6917.872,95.437,540.894,538.58,0.0
52582.0,STARLINK-3886,PAYLOAD,2023-11-04 20:38:10,15.088466,0.0001726,53.218,1.091,92.4637,267.6553,0.0003919,5.956e-05,0.0,0 STARLINK-3886,1 52582U 22051AY  23308.85984140  .00005956  00000-0  39190-3 0  9997,2 52582  53.2180   1.0910 0001726  92.4637 267.6553 15.08846600 82384,6917.86,95.437,540.919,538.531,0.0
52582.0,STARLINK-3886,PAYLOAD,2023-11-05 10:56:38,15.08858052,0.0002061,53.2192,358.4139,88.2943,271.8285,0.00065235,0.00010114,0.0,0 STARLINK-3886,1 52582U 22051AY  23309.45599856  .00010114  00000-0  65235-3 0  9991,2 52582  53.2192 358.4139 0002061  88.2943 271.8285 15.08858052 82546,6917.825,95.436,541.116,538.264,0.0
52582.0,STARLINK-3886,PAYLOAD,2023-11-05 12:32:00,15.08867612,0.0001805,53.2175,358.1186,116.7567,243.361,0.0007604,0.00011844,0.0,0 STARLINK-3886,1 52582U 22051AY  23309.52223116  .00011844  00000-0  76040-3 0  9999,2 52582  53.2175 358.1186 0001805 116.7567 243.3610 15.08867612 82481,6917.796,95.436,540.91,538.412,0.0
52582.0,STARLINK-3886,PAYLOAD,2023-11-05 20:28:56,15.08858575,0.0002501,53.2174,356.6318,79.0121,281.1152,0.00049878,7.663e-05,0.0,0 STARLINK-3886,1 52582U 22051AY  23309.85343729  .00007663  00000-0  49878-3 0  9991,2 52582  53.2174 356.6318 0002501  79.0121 281.1152 15.08858575 82536,6917.824,95.436,541.419,537.958,0.0
52582.0,STARLINK-3886,PAYLOAD,2023-11-06 02:50:29,15.0884925,0.0001945,53.2172,355.4408,77.0632,283.0577,0.0001623,2.296e-05,0.0,0 STARLINK-3886,1 52582U 22051AY  23310.11839574  .00002296  00000-0  16230-3 0  9993,2 52582  53.2172 355.4408 0001945  77.0632 283.0577 15.08849250 82641,6917.852,95.437,541.063,538.372,0.0
52582.0,STARLINK-3886,PAYLOAD,2023-11-06 10:47:24,15.08875178,0.0001983,53.2172,353.9542,76.6261,283.4952,0.0010855,0.00017047,0.0,0 STARLINK-3886,1 52582U 22051AY  23310.44958769  .00017047  00000-0  10855-2 0  9993,2 52582  53.2172 353.9542 0001983  76.6261 283.4952 15.08875178 82692,6917.773,95.435,541.01,538.266,0.0
52582.0,STARLINK-3886,PAYLOAD,2023-11-06 20:19:44,15.08833167,0.0002132,53.2193,352.1696,74.69,285.4328,0.00024034,3.538e-05,0.0,0 STARLINK-3886,1 52582U 22051AY  23310.84703728  .00003538  00000-0  24034-3 0  9995,2 52582  53.2193 352.1696 0002132  74.6900 285.4328 15.08833167 82681,6917.901,95.438,541.241,538.291,0.0
52582.0,STARLINK-3886,PAYLOAD,2023-11-07 09:02:50,15.08797252,0.0001753,53.2191,349.7907,88.4201,271.6992,0.0013304,0.00020924,0.0,0 STARLINK-3886,1 52582U 22051AY  23311.37697772  .00020924  00000-0  13304-2 0  9990,2 52582  53.2191 349.7907 0001753  88.4201 271.6992 15.08797252 82836,6918.011,95.44,541.089,538.663,0.0
52582.0,STARLINK-3886,PAYLOAD,2023-11-07 12:13:37,15.0878716,0.0001621,53.2182,349.1945,90.9947,269.1231,0.0017213,0.00027173,0.0,0 STARLINK-3886,1 52582U 22051AY  23311.50946255  .00027173  00000-0  17213-2 0  9994,2 52582  53.2182 349.1945 0001621  90.9947 269.1231 15.08787160 82780,6918.042,95.441,541.028,538.785,0.0
52582.0,STARLINK-3886,PAYLOAD,2023-11-07 23:21:20,15.08833416,0.0001543,53.2176,347.115,82.7837,277.333,0.0024402,0.00038755,0.0,0 STARLINK-3886,1 52582U 22051AY  23311.97314929  .00038755  00000-0  24402-2 0  9998,2 52582  53.2176 347.1150 0001543  82.7837 277.3330 15.08833416 82922,6917.901,95.438,540.833,538.698,0.0
52582.0,STARLINK-3886,PAYLOAD,2023-11-08 12:04:24,15.0887629,0.000155,53.2182,344.7355,89.4003,270.7167,0.0023776,0.00037792,0.0,0 STARLINK-3886,1 52582U 22051AY  23312.50306203  .00037792  00000-0  23776-2 0  9997,2 52582  53.2182 344.7355 0001550  89.4003 270.7167 15.08876290 82939,6917.769,95.435,540.707,538.562,0.0
52582.0,STARLINK-3886,PAYLOAD,2023-11-09 08:44:24,15.08873981,0.0001738,53.2185,340.8696,98.6401,261.4788,0.0019096,0.00030263,0.0,0 STARLINK-3886,1 52582U 22051AY  23313.36417360  .00030263  00000-0  19096-2 0  9995,2 52582  53.2185 340.8696 0001738  98.6401 261.4788 15.08873981 83132,6917.777,95.435,540.844,538.439,0.0
52582.0,STARLINK-3886,PAYLOAD,2023-11-10 02:13:39,15.08838493,0.0001417,53.2178,337.5975,92.3217,267.7937,0.0011668,0.0001833,0.0,0 STARLINK-3886,1 52582U 22051AY  23314.09281353  .00018330  00000-0  11668-2 0  9995,2 52582  53.2178 337.5975 0001417  92.3217 267.7937 15.08838493 83243,6917.885,95.438,540.73,538.77,0.0
52582.0,STARLINK-3886,PAYLOAD,2023-11-10 08:35:11,15.0885163,0.0001391,53.2177,336.4092,90.0745,270.0407,0.0016367,0.00025864,0.0,0 STARLINK-3886,1 52582U 22051AY  23314.35777231  .00025864  00000-0  16367-2 0  9990,2 52582  53.2177 336.4092 0001391  90.0745 270.0407 15.08851630 83216,6917.845,95.437,540.672,538.748,0.0
52582.0,STARLINK-3886,PAYLOAD,2023-11-10 18:07:30,15.0885249,0.0001459,53.2184,334.6248,91.7284,268.3875,0.0011512,0.00018087,0.0,0 STARLINK-3886,1 52582U 22051AY  23314.75521142  .00018087  00000-0  11512-2 0  9998,2 52582  53.2184 334.6248 0001459  91.7284 268.3875 15.08852490 83278,6917.842,95.437,540.717,538.698,0.0
52582.0,STARLINK-3886,PAYLOAD,2023-11-11 00:29:03,15.08836098,0.0001439,53.2179,333.4354,83.1913,276.9243,0.00041872,6.382e-05,0.0,0 STARLINK-3886,1 52582U 22051AY  23315.02017410  .00006382  00000-0  41872-3 0  9995,2 52582  53.2179 333.4354 0001439  83.1913 276.9243 15.08836098 83381,6917.892,95.438,540.753,538.762,0.0
52582.0,STARLINK-3886,PAYLOAD,2023-11-11 08:25:58,15.08845584,0.0001495,53.2178,331.9497,87.2117,272.9047,0.0011991,0.0001885,0.0,0 STARLINK-3886,1 52582U 22051AY  23315.35137334  .00018850  00000-0  11991-2 0  9990,2 52582  53.2178 331.9497 0001495  87.2117 272.9047 15.08845584 83360,6917.863,95.437,540.763,538.694,0.0
52582.0,STARLINK-3886,PAYLOAD,2023-11-12 00:19:50,15.08843686,0.0001649,53.2169,328.9759,99.8132,260.3046,0.00048409,7.425e-05,0.0,0 STARLINK-3886,1 52582U 22051AY  23316.01377357  .00007425  00000-0  48409-3 0  9996,2 52582  53.2169 328.9759 0001649  99.8132 260.3046 15.08843686 83534,6917.869,95.437,540.875,538.593,0.0
52582.0,STARLINK-3886,PAYLOAD,2023-11-12 09:52:08,15.08850137,0.0001598,53.2173,327.1917,99.2085,260.9088,0.00028851,4.308e-05,0.0,0 STARLINK-3886,1 52582U 22051AY  23316.41121052  .00004308  00000-0  28851-3 0  9995,2 52582  53.2173 327.1917 0001598  99.2085 260.9088 15.08850137 83520,6917.849,95.437,540.82,538.609,0.0
52582.0,STARLINK-3886,PAYLOAD,2023-11-12 17:49:04,15.0884439,0.0001836,53.2189,325.7052,92.4957,267.6246,0.00020373,2.956e-05,0.0,0 STARLINK-3886,1 52582U 22051AY  23316.74241296  .00002956  00000-0  20373-3 0  9992,2 52582  53.2189 325.7052 0001836  92.4957 267.6246 15.08844390 83646,6917.867,95.437,541.002,538.462,0.0
52582.0,STARLINK-3886,PAYLOAD,2023-11-13 09:42:55,15.08849016,0.0001685,53.2178,322.7307,87.3572,272.7613,0.00021551,3.144e-05,0.0,0 STARLINK-3886,1 52582U 22051AY  23317.40481013  .00003144  00000-0  21551-3 0  9998,2 52582  53.2178 322.7307 0001685  87.3572 272.7613 15.08849016 83670,6917.853,95.437,540.883,538.552,0.0
52582.0,STARLINK-3886,PAYLOAD,2023-11-13 17:39:51,15.08845845,0.0001553,53.218,321.2442,104.3867,255.7298,9.6393e-05,1.247e-05,0.0,0 STARLINK-3886,1 52582U 22051AY  23317.73601011  .00001247  00000-0  96393-4 0  9995,2 52582  53.2180 321.2442 0001553 104.3867 255.7298 15.08845845 83720,6917.863,95.437,540.802,538.653,0.0
52582.0,STARLINK-3886,PAYLOAD,2023-11-14 09:33:42,15.08847557,0.0001541,53.2175,318.2677,100.1365,259.9801,0.00023318,3.426e-05,0.0,0 STARLINK-3886,1 52582U 22051AY  23318.39840877  .00003426  00000-0  23318-3 0  9990,2 52582  53.2175 318.2677 0001541 100.1365 259.9801 15.08847557 83890,6917.857,95.437,540.788,538.656,0.0
52582.0,STARLINK-3886,PAYLOAD,2023-11-15 06:13:43,15.08838266,0.000182,53.219,314.4008,92.7928,267.3273,8.4398e-07,-2.75e-06,0.0,0 STARLINK-3886,1 52582U 22051AY  23319.25953661 -.00000275  00000-0  84398-6 0  9990,2 52582  53.2190 314.4008 0001820  92.7928 267.3273 15.08838266 84023,6917.886,95.438,541.01,538.492,0.0
52582.0,STARLINK-3886,PAYLOAD,2023-11-15 17:21:25,15.08839837,0.0001667,53.2181,312.3198,101.1475,258.9705,5.6336e-05,6.09e-06,0.0,0 STARLINK-3886,1 52582U 22051AY  23319.72321653  .00000609  00000-0  56336-4 0  9991,2 52582  53.2181 312.3198 0001667 101.1475 258.9705 15.08839837 84022,6917.881,95.438,540.899,538.593,0.0
52582.0,STARLINK-3886,PAYLOAD,2023-11-16 09:15:17,15.08845409,0.000167,53.2177,309.3478,98.0632,262.055,0.00025476,3.769e-05,0.0,0 STARLINK-3886,1 52582U 22051AY  23320.38561652  .00003769  00000-0  25476-3 0  9990,2 52582  53.2177 309.3478 0001670  98.0632 262.0550 15.08845409 84191,6917.864,95.437,540.884,538.574,0.0
52582.0,STARLINK-3886,PAYLOAD,2023-11-17 02:44:31,15.08841508,0.0001738,53.2177,306.0763,96.6551,263.4639,0.00017201,2.451e-05,0.0,0 STARLINK-3886,1 52582U 22051AY  23321.11425893  .00002451  00000-0  17201-3 0  9992,2 52582  53.2177 306.0763 0001738  96.6551 263.4639 15.08841508 84303,6917.876,95.437,540.943,538.538,0.0
52582.0,STARLINK-3886,PAYLOAD,2023-11-17 05:55:18,15.08842599,0.0001743,53.2178,305.4817,97.654,262.465,0.00019081,2.75e-05,0.0,0 STARLINK-3886,1 52582U 22051AY  23321.24673836  .00002750  00000-0  19081-3 0  9998,2 52582  53.2178 305.4817 0001743  97.6540 262.4650 15.08842599 84259,6917.872,95.437,540.943,538.532,0.0
52582.0,STARLINK-3886,PAYLOAD,2023-11-18 04:10:42,15.08838269,0.0001827,53.2181,301.3179,100.2227,259.8971,-8.3758e-05,-1.621e-05,0.0,0 STARLINK-3886,1 52582U 22051AY  23322.17410023 -.00001621  00000-0 -83758-4 0  9999,2 52582  53.2181 301.3179 0001827 100.2227 259.8971 15.08838269 84463,6917.886,95.438,541.015,538.487,0.0
